{
  "type": "FeatureCollection",
  "features": [
    {
      "type": "Feature",
      "properties": {
        "norad_id": 34459,
        "name": "COSMOS 2251 DEB",
        "group": "cosmos-2251-debris",
        "lat": 37.71625661832456,
        "lon": -83.03630325138695,
        "alt_km": 826.2545851182795,
        "timestamp": "2025-12-06T20:37:56.469896+00:00",
        "meta_object_name": "COSMOS 2251 DEB",
        "meta_object_id": "1993-036TC",
        "meta_epoch": "2025-12-06T11:52:39.732384",
        "meta_mean_motion": 14.00482343,
        "meta_eccentricity": 0.01919545,
        "meta_inclination": 74.0791,
        "meta_ra_of_asc_node": 264.8417,
        "meta_arg_of_pericenter": 336.0282,
        "meta_mean_anomaly": 23.2,
        "meta_ephemeris_type": 0,
        "meta_classification_type": "U",
        "meta_norad_cat_id": 34459,
        "meta_element_set_no": 999,
        "meta_rev_at_epoch": 85624,
        "meta_bstar": 0.0010852431,
        "meta_mean_motion_dot": 1.865e-05,
        "meta_mean_motion_ddot": 0,
        "tle_line1": "1 34459U 93036TC  25340.49490431  .00001865  00000+0  10852-2 0  9991",
        "tle_line2": "2 34459  74.0791 264.8417 0191954 336.0282  23.2000 14.00482343856241"
      },
      "geometry": {
        "type": "Point",
        "coordinates": [
          -83.03630325138695,
          37.71625661832456
        ]
      }
    },
    {
      "type": "Feature",
      "properties": {
        "norad_id": 34464,
        "name": "COSMOS 2251 DEB",
        "group": "cosmos-2251-debris",
        "lat": 32.87133895432242,
        "lon": 101.44858561929652,
        "alt_km": 493.5321030946425,
        "timestamp": "2025-12-06T20:37:56.469907+00:00",
        "meta_object_name": "COSMOS 2251 DEB",
        "meta_object_id": "1993-036TH",
        "meta_epoch": "2025-12-06T14:11:14.439840",
        "meta_mean_motion": 15.25735839,
        "meta_eccentricity": 0.00169897,
        "meta_inclination": 73.9911,
        "meta_ra_of_asc_node": 91.3252,
        "meta_arg_of_pericenter": 265.4363,
        "meta_mean_anomaly": 94.4896,
        "meta_ephemeris_type": 0,
        "meta_classification_type": "U",
        "meta_norad_cat_id": 34464,
        "meta_element_set_no": 999,
        "meta_rev_at_epoch": 89746,
        "meta_bstar": 0.0047462951,
        "meta_mean_motion_dot": 0.00123607,
        "meta_mean_motion_ddot": 0,
        "tle_line1": "1 34464U 93036TH  25340.59113935  .00123607  00000+0  47463-2 0  9996",
        "tle_line2": "2 34464  73.9911  91.3252 0016989 265.4363  94.4896 15.25735839897469"
      },
      "geometry": {
        "type": "Point",
        "coordinates": [
          101.44858561929652,
          32.87133895432242
        ]
      }
    },
    {
      "type": "Feature",
      "properties": {
        "norad_id": 34468,
        "name": "COSMOS 2251 DEB",
        "group": "cosmos-2251-debris",
        "lat": 52.46810971860263,
        "lon": -73.69434967558824,
        "alt_km": 775.1282491533657,
        "timestamp": "2025-12-06T20:37:56.469917+00:00",
        "meta_object_name": "COSMOS 2251 DEB",
        "meta_object_id": "1993-036TM",
        "meta_epoch": "2025-12-06T13:25:10.420896",
        "meta_mean_motion": 14.47599745,
        "meta_eccentricity": 0.00763252,
        "meta_inclination": 74.0117,
        "meta_ra_of_asc_node": 128.7828,
        "meta_arg_of_pericenter": 274.941,
        "meta_mean_anomaly": 84.3039,
        "meta_ephemeris_type": 0,
        "meta_classification_type": "U",
        "meta_norad_cat_id": 34468,
        "meta_element_set_no": 999,
        "meta_rev_at_epoch": 88372,
        "meta_bstar": 0.00059551235,
        "meta_mean_motion_dot": 2.246e-05,
        "meta_mean_motion_ddot": 0,
        "tle_line1": "1 34468U 93036TM  25340.55914839  .00002246  00000+0  59551-3 0  9995",
        "tle_line2": "2 34468  74.0117 128.7828 0076325 274.9410  84.3039 14.47599745883723"
      },
      "geometry": {
        "type": "Point",
        "coordinates": [
          -73.69434967558824,
          52.46810971860263
        ]
      }
    },
    {
      "type": "Feature",
      "properties": {
        "norad_id": 34472,
        "name": "COSMOS 2251 DEB",
        "group": "cosmos-2251-debris",
        "lat": -12.563630401051542,
        "lon": 104.16881276823749,
        "alt_km": 1065.8066890569498,
        "timestamp": "2025-12-06T20:37:56.469928+00:00",
        "meta_object_name": "COSMOS 2251 DEB",
        "meta_object_id": "1993-036TR",
        "meta_epoch": "2025-12-05T14:54:42.312384",
        "meta_mean_motion": 13.70313607,
        "meta_eccentricity": 0.03279919,
        "meta_inclination": 74.0837,
        "meta_ra_of_asc_node": 109.8506,
        "meta_arg_of_pericenter": 242.3718,
        "meta_mean_anomaly": 114.375,
        "meta_ephemeris_type": 0,
        "meta_classification_type": "U",
        "meta_norad_cat_id": 34472,
        "meta_element_set_no": 999,
        "meta_rev_at_epoch": 83629,
        "meta_bstar": 0.0014763428,
        "meta_mean_motion_dot": 1.882e-05,
        "meta_mean_motion_ddot": 0,
        "tle_line1": "1 34472U 93036TR  25339.62132306  .00001882  00000+0  14763-2 0  9997",
        "tle_line2": "2 34472  74.0837 109.8506 0327991 242.3718 114.3750 13.70313607836298"
      },
      "geometry": {
        "type": "Point",
        "coordinates": [
          104.16881276823749,
          -12.563630401051542
        ]
      }
    },
    {
      "type": "Feature",
      "properties": {
        "norad_id": 34474,
        "name": "COSMOS 2251 DEB",
        "group": "cosmos-2251-debris",
        "lat": 68.66917059509025,
        "lon": 23.41210739689644,
        "alt_km": 733.1020626652798,
        "timestamp": "2025-12-06T20:37:56.469939+00:00",
        "meta_object_name": "COSMOS 2251 DEB",
        "meta_object_id": "1993-036TT",
        "meta_epoch": "2025-12-06T10:44:32.848224",
        "meta_mean_motion": 14.06352202,
        "meta_eccentricity": 0.01979317,
        "meta_inclination": 74.078,
        "meta_ra_of_asc_node": 337.1621,
        "meta_arg_of_pericenter": 52.6434,
        "meta_mean_anomaly": 96.6204,
        "meta_ephemeris_type": 0,
        "meta_classification_type": "U",
        "meta_norad_cat_id": 34474,
        "meta_element_set_no": 999,
        "meta_rev_at_epoch": 85420,
        "meta_bstar": 0.0027523724,
        "meta_mean_motion_dot": 5.403e-05,
        "meta_mean_motion_ddot": 0,
        "tle_line1": "1 34474U 93036TT  25340.44760241  .00005403  00000+0  27524-2 0  9998",
        "tle_line2": "2 34474  74.0780 337.1621 0197931  52.6434  96.6204 14.06352202854208"
      },
      "geometry": {
        "type": "Point",
        "coordinates": [
          23.41210739689644,
          68.66917059509025
        ]
      }
    },
    {
      "type": "Feature",
      "properties": {
        "norad_id": 34476,
        "name": "COSMOS 2251 DEB",
        "group": "cosmos-2251-debris",
        "lat": -18.363165588997095,
        "lon": -82.12202908972243,
        "alt_km": 1051.5634064481428,
        "timestamp": "2025-12-06T20:37:56.469950+00:00",
        "meta_object_name": "COSMOS 2251 DEB",
        "meta_object_id": "1993-036TV",
        "meta_epoch": "2025-12-06T07:28:56.159040",
        "meta_mean_motion": 13.81935565,
        "meta_eccentricity": 0.03191718,
        "meta_inclination": 74.0067,
        "meta_ra_of_asc_node": 93.3381,
        "meta_arg_of_pericenter": 314.337,
        "meta_mean_anomaly": 43.1989,
        "meta_ephemeris_type": 0,
        "meta_classification_type": "U",
        "meta_norad_cat_id": 34476,
        "meta_element_set_no": 999,
        "meta_rev_at_epoch": 83549,
        "meta_bstar": 0.00496097,
        "meta_mean_motion_dot": 7.834e-05,
        "meta_mean_motion_ddot": 0,
        "tle_line1": "1 34476U 93036TV  25340.31176110  .00007834  00000+0  49610-2 0  9992",
        "tle_line2": "2 34476  74.0067  93.3381 0319171 314.3370  43.1989 13.81935565835499"
      },
      "geometry": {
        "type": "Point",
        "coordinates": [
          -82.12202908972243,
          -18.363165588997095
        ]
      }
    },
    {
      "type": "Feature",
      "properties": {
        "norad_id": 34477,
        "name": "COSMOS 2251 DEB",
        "group": "cosmos-2251-debris",
        "lat": -43.41723512241186,
        "lon": 64.93064277108513,
        "alt_km": 671.4640737290465,
        "timestamp": "2025-12-06T20:37:56.469960+00:00",
        "meta_object_name": "COSMOS 2251 DEB",
        "meta_object_id": "1993-036TW",
        "meta_epoch": "2025-12-06T09:49:24.752064",
        "meta_mean_motion": 14.56790168,
        "meta_eccentricity": 0.00769224,
        "meta_inclination": 73.9796,
        "meta_ra_of_asc_node": 81.5638,
        "meta_arg_of_pericenter": 269.8762,
        "meta_mean_anomaly": 202.9661,
        "meta_ephemeris_type": 0,
        "meta_classification_type": "U",
        "meta_norad_cat_id": 34477,
        "meta_element_set_no": 999,
        "meta_rev_at_epoch": 88533,
        "meta_bstar": 0.0015557481,
        "meta_mean_motion_dot": 7.225e-05,
        "meta_mean_motion_ddot": 0,
        "tle_line1": "1 34477U 93036TW  25340.40931426  .00007225  00000+0  15557-2 0  9999",
        "tle_line2": "2 34477  73.9796  81.5638 0076922 269.8762 202.9661 14.56790168885335"
      },
      "geometry": {
        "type": "Point",
        "coordinates": [
          64.93064277108513,
          -43.41723512241186
        ]
      }
    }
  ]
}